DMSP 5D-3 F16 (USA 172) 
1 28054U 03048A   26191.86949509 -.00000040  00000+0  26822-5 0  9992
2 28054  98.9887 215.8538 0008202  81.7750  20.9346 14.14484847172832
METEOSAT-9 (MSG-2)      
1 28912U 05049B   26191.71844315  .00000124  00000+0  00000+0 0  9997
2 28912   9.4120  53.9304 0002029 357.9991 181.0196  1.00270013  7232
DMSP 5D-3 F17 (USA 191) 
1 29522U 06050A   26191.78723933 -.00000011  00000+0  16691-4 0  9991
2 29522  98.7384 197.8749 0009992 355.7013   4.4073 14.14995939 15760
FENGYUN 3A              
1 32958U 08026A   26190.74299394  .00000025  00000+0  32429-4 0  9998
2 32958  98.6887 131.1547 0009815  65.9784 294.2419 14.19575738938606
GOES 14                 
1 35491U 09033A   26191.80601978 -.00000347  00000+0  00000+0 0  9998
2 35491   1.7477  82.7490 0001899  39.3031 224.6319  1.00100359  6828
DMSP 5D-3 F18 (USA 210) 
1 35951U 09057A   26191.83083374  .00000177  00000+0  11446-3 0  9992
2 35951  98.9052 172.5502 0010968 177.7543 182.3681 14.14909718862939
EWS-G2 (GOES 15)        
1 36411U 10008A   26191.86459171  .00000029  00000+0  00000+0 0  9993
2 36411   1.3397  82.5182 0005206  52.9074 167.9735  1.00268081 59879
COMS 1                  
1 36744U 10032A   26191.34928957 -.00000227  00000+0  00000+0 0  9996
2 36744   4.8616  75.0765 0011305  14.6921 305.5544  0.99169038 51315
FENGYUN 3B              
1 37214U 10059A   26191.86175766 -.00000036  00000+0  45561-5 0  9992
2 37214  98.9613 237.9752 0023048 118.3209 347.1496 14.14845500810770
SUOMI NPP               
1 37849U 11061A   26191.81236553  .00000022  00000+0  31666-4 0  9991
2 37849  98.7956 132.5276 0000589 244.2908 115.8207 14.19522097761798
METEOSAT-10 (MSG-3)     
1 38552U 12035B   26191.85203899 -.00000003  00000+0  00000+0 0  9999
2 38552   4.7249  60.8996 0001106  18.7066 155.9604  1.00270027 51099
METOP-B                 
1 38771U 12049A   26191.84095936  .00000040  00000+0  38330-4 0  9999
2 38771  98.6492 242.8668 0001047 283.1215  76.9845 14.21445572716622
INSAT-3D                
1 39216U 13038B   26191.80645311 -.00000332  00000+0  00000+0 0  9990
2 39216   1.9840  82.2428 0000505  80.6909 185.6390  1.00270592 47316
FENGYUN 3C              
1 39260U 13052A   26191.86073601  .00000021  00000+0  31801-4 0  9990
2 39260  98.4994 164.6503 0013849 319.2122  40.8015 14.15760192661912
METEOR-M 2              
1 40069U 14037A   26191.79659541 -.00000298  00000+0 -11690-3 0  9999
2 40069  98.5126 166.6998 0005410 341.2029  18.8948 14.21467199622673
HIMAWARI-8              
1 40267U 14060A   26190.88188485 -.00000264  00000+0  00000+0 0  9999
2 40267   0.0305 288.7018 0000829 203.5253 253.7182  1.00269387 42989
FENGYUN 2G              
1 40367U 14090A   26191.82108204 -.00000296  00000+0  00000+0 0  9994
2 40367   5.6947  72.5304 0004180 151.4306  99.7078  1.00262179 42236
METEOSAT-11 (MSG-4)     
1 40732U 15034A   26191.85385902  .00000067  00000+0  00000+0 0  9999
2 40732   3.2589  70.9624 0002259 352.4897 181.9591  1.00270506  7450
ELEKTRO-L 2             
1 41105U 15074A   26190.92243847 -.00000112  00000+0  00000+0 0  9998
2 41105   6.7473  70.2440 0000797 224.6641 310.5088  1.00272734 38737
SENTINEL-3A             
1 41335U 16011A   26191.85033198  .00000036  00000+0  33084-4 0  9991
2 41335  98.6239 258.8929 0001393  91.4289 268.7051 14.26738982541433
INSAT-3DR               
1 41752U 16054A   26191.86675838 -.00000069  00000+0  00000+0 0  9999
2 41752   0.0584  88.8531 0010612 181.6071  44.3607  1.00271991 36053
HIMAWARI-9              
1 41836U 16064A   26191.28447437  .00000000  00000+0  00000+0 0  9995
2 41836   0.0237  41.9433 0002433 138.5658 350.8758  1.00270260 35448
GOES 16                 
1 41866U 16071A   26191.68875551 -.00000082  00000+0  00000+0 0  9993
2 41866   0.3917  85.5262 0000526  94.9282 251.4180  1.00270916 35333
FENGYUN 4A              
1 41882U 16077A   26191.87655178 -.00000351  00000+0  00000+0 0  9998
2 41882   2.3789  80.0254 0008429 158.7929 129.3136  1.00270665 35164
CYGFM05                 
1 41884U 16078A   26191.19507238  .00019825  00000+0  25867-3 0  9996
2 41884  34.9560 108.1176 0006952 348.7784  11.2785 15.57691300532349
CYGFM04                 
1 41885U 16078B   26191.79463069  .00022139  00000+0  23660-3 0  9997
2 41885  34.9323  70.6084 0004773  35.0008 325.1031 15.62884299532698
CYGFM02                 
1 41886U 16078C   26191.74839507  .00029967  00000+0  28103-3 0  9990
2 41886  34.9405  64.7367 0005585  38.5997 321.5129 15.66121187532866
CYGFM01                 
1 41887U 16078D   26191.17349868  .00020177  00000+0  25625-3 0  9994
2 41887  34.9391 109.1272 0006861 341.9889  18.0591 15.58402965532294
CYGFM08                 
1 41888U 16078E   26191.79576794  .00020448  00000+0  23261-3 0  9998
2 41888  34.9428  83.9324 0006953  22.7510 337.3522 15.61278165532669
CYGFM07                 
1 41890U 16078G   26191.81732112  .00020286  00000+0  22992-3 0  9992
2 41890  34.9447  72.1094 0005185  36.5170 323.5909 15.61387531532695
CYGFM03                 
1 41891U 16078H   26191.78847598  .00020613  00000+0  23373-3 0  9992
2 41891  34.9402  74.2321 0005217  19.9301 340.1628 15.61373425532667
